OBJECT_NAME,OBJECT_ID,EPOCH,MEAN_MOTION,ECCENTRICITY,INCLINATION,RA_OF_ASC_NODE,ARG_OF_PERICENTER,MEAN_ANOMALY,EPHEMERIS_TYPE,CLASSIFICATION_TYPE,NORAD_CAT_ID,ELEMENT_SET_NO,REV_AT_EPOCH,BSTAR,MEAN_MOTION_DOT,MEAN_MOTION_DDOT
COSMOS 2534 (758),2019-030A,2026-06-29T15:50:49.664256,2.13102425,.00135177,64.3700,192.1964,275.0224,73.0621,0,U,44299,999,5518,0,.85E-6,0
BEIDOU-3 IGSO-2 (C39),2019-035A,2026-07-04T15:47:08.096640,1.00261392,.00396954,55.2501,158.7091,216.4628,263.3428,0,U,44337,999,2584,0,-.89E-6,0
GPS BIII-2  (PRN 18),2019-056A,2026-07-04T20:23:12.770304,2.00570103,.00629393,55.6279,330.4419,197.9329,342.8878,0,U,44506,999,5042,0,-.7E-6,0
BEIDOU-3 M24 (C46),2019-061A,2026-07-03T21:18:43.166304,1.86229357,.00085599,54.3971,182.1644,358.8383,1.1607,0,U,44542,999,4610,0,.88E-6,0
BEIDOU-3 M23 (C45),2019-061B,2026-07-04T19:43:01.622784,1.86227694,.00058631,54.3962,182.1016,338.9372,198.4419,0,U,44543,999,4612,0,.97E-6,0
EUTELSAT 5 WEST B (EGNOS/PRN 121),2019-067A,2026-07-04T22:25:10.733664,1.00271467,.00032973,0.0676,335.0666,129.1603,150.0041,0,U,44624,999,2461,0,-.29E-6,0
BEIDOU-3 M22 (C44),2019-078A,2026-07-02T02:48:48.341088,1.86227671,.0005958,53.9213,299.3025,49.9871,310.0853,0,U,44793,999,4492,0,-.61E-6,0
BEIDOU-3 M21 (C43),2019-078B,2026-07-04T22:36:21.660768,1.86228134,.00038626,53.8918,299.1641,47.9149,312.1457,0,U,44794,999,4498,0,-.57E-6,0
COSMOS 2544 (759),2019-088A,2026-07-02T12:21:34.940736,2.13103168,.00126282,65.5733,73.2191,256.5667,103.3590,0,U,44850,999,5104,0,-.8E-7,0
BEIDOU-3 M19 (C41),2019-090A,2026-07-02T17:41:22.022880,1.86231681,.0017127,56.5716,62.2771,297.4170,221.8664,0,U,44864,999,4452,0,-.37E-6,0
BEIDOU-3 M20 (C42),2019-090B,2026-07-02T15:58:39.158400,1.86231813,.00151255,56.5739,62.3139,311.8646,249.1839,0,U,44865,999,4450,0,-.37E-6,0
BEIDOU-3 G2 (C60),2020-017A,2026-07-04T22:49:22.406592,1.00271222,.00025473,2.8979,47.5916,48.4345,249.3610,0,U,45344,999,2343,0,-.129E-5,0
COSMOS 2545 (760),2020-018A,2026-07-03T15:33:46.473984,2.13102788,.0009028,64.3444,311.8403,230.0373,129.8930,0,U,45358,999,4901,0,-.45E-6,0
BEIDOU-3 G3 (C61),2020-040A,2026-07-04T23:13:08.736672,1.00270285,.00023419,2.4884,67.4760,334.4617,339.8779,0,U,45807,999,2224,0,-.342E-5,0
GPS BIII-3  (PRN 23),2020-041A,2026-07-03T10:03:54.743904,2.00558496,.00655367,56.6609,28.3098,210.5872,315.2472,0,U,45854,999,4436,0,-.59E-6,0
GALAXY 30 (WAAS/PRN 135),2020-056C,2026-07-04T18:25:17.444064,1.00271730,.0001984,0.0222,38.3019,69.3110,326.4938,0,U,46114,999,2146,0,0,0
COSMOS 2547 (705K),2020-075A,2026-07-04T18:38:20.413824,2.13100206,.00094495,64.6009,191.8885,239.8212,120.1121,0,U,46805,999,4428,0,.98E-6,0
GPS BIII-4  (PRN 14),2020-078A,2026-07-04T05:10:38.680608,2.00565046,.00741746,53.9786,210.0881,207.5557,150.2596,0,U,46826,999,4184,0,.73E-6,0
GPS BIII-5  (PRN 11),2021-054A,2026-07-02T00:34:02.169408,2.00568335,.0025946,55.1671,331.8638,228.3850,172.9360,0,U,48859,999,3705,0,-.82E-6,0
QZS-1R (QZSS/PRN 196),2021-096A,2026-07-02T14:34:09.311808,1.00250822,.07559081,37.4911,79.3558,272.0505,280.6356,0,U,49336,999,1716,0,-.27E-5,0
GSAT0223 (GALILEO 27),2021-116A,2026-07-03T10:06:08.269056,1.70476367,.0001787,57.1558,341.2375,186.7549,176.0990,0,U,49809,999,2846,0,-.75E-6,0
GSAT0224 (GALILEO 28),2021-116B,2026-07-03T19:40:34.453344,1.70476408,.00015726,57.1559,341.2257,171.0762,189.2294,0,U,49810,999,2849,0,-.74E-6,0
COSMOS 2557 (706K),2022-075A,2026-07-04T11:19:03.627264,2.13102284,.0010733,64.2874,313.8770,271.9637,87.9233,0,U,52984,999,3108,0,-.45E-6,0
COSMOS 2559 (707K),2022-130A,2026-07-02T21:12:10.423872,2.13101779,.001288,64.2611,314.0154,179.7670,180.2387,0,U,54031,999,2902,0,-.49E-6,0
COSMOS 2564 (761),2022-161A,2026-07-04T14:29:17.405088,2.13102039,.00122713,64.7433,192.1335,225.1181,134.8097,0,U,54377,999,2800,0,.96E-6,0
GPS BIII-6  (PRN 28),2023-009A,2026-07-01T18:20:00.000096,2.00571084,.00062623,55.1238,147.9465,318.3854,293.8670,0,U,55268,999,2553,0,.4E-6,0
BEIDOU-3 G4 (C62),2023-066A,2026-07-04T23:06:20.780064,1.00267674,.00050582,0.4689,335.9125,178.0071,255.6228,0,U,56564,999,1157,0,-.269E-5,0
NVS-01 (IRNSS-1J),2023-076A,2026-07-04T21:20:54.261024,1.00270536,.00030727,2.1269,243.5607,7.8615,121.2700,0,U,56759,999,1129,0,-.322E-5,0
COSMOS 2569 (703K),2023-114A,2026-06-30T09:25:27.591744,2.13103831,.00101962,65.3095,72.1752,296.5286,63.4269,0,U,57517,999,2254,0,-.2E-6,0
BEIDOU-3 M28 (C50),2023-207A,2026-07-04T11:34:02.742816,1.86229770,.00027258,55.7679,61.7198,358.1906,1.8767,0,U,58654,999,1716,0,-.38E-6,0
BEIDOU-3 M26 (C48),2023-207B,2026-07-03T04:56:00.090240,1.86229811,.0002438,55.7690,61.7493,322.8405,37.2117,0,U,58655,999,1712,0,-.38E-6,0
